    "l2": "2 24946  86.3872 352.0211 0007530 358.6001   1.5173 14.35147473504389",
    "l2": "2 33773  86.4009 343.6844 0008907 274.1681  85.8502 14.43644012909653",
    "l2": "2 33775  86.3627 332.0539 0010727 284.7792 256.1556 14.42013668907551",
    "l2": "2 33776  86.4044   4.6427 0013313 330.9197 148.7208 14.38535659906879",
    "l2": "2 33777  86.3771 315.9155 0007019  22.3782 337.7731 14.56836512911846",
    "l2": "2 33850  86.3403 311.8664 0009188 291.7860 193.4653 14.42676092907775",
    "l2": "2 33853  85.9981 269.9072 0208647  38.4953  83.1470 13.99850090878929",
    "l2": "2 33860  86.3806 306.7411 0010585  82.1411  97.6388 14.70171500913854",
    "l2": "2 33862  86.4074 316.9384 0049242 154.5928 325.3871 14.73440001915022",
    "l2": "2 33866  86.3021  16.2492 0111913 299.7017 187.6975 14.26302391893940",
    "l2": "2 33870  86.3745 340.1833 0018694 300.9401 120.5069 14.46789703907685",
    "l2": "2 33881  86.3851  27.9911 0053771 288.0212 195.5768 14.61692672901309",
    "l2": "2 33884  86.3658 287.2593 0011172  45.8751  80.9209 14.82857072915403",
    "l2": "2 33886  86.3833 350.5979 0014623  19.6224 351.4787 14.36257700906655",
    "l2": "2 33887  86.3033 284.9284 0006669  24.3070  93.1563 14.37394377907803",
    "l2": "2 33953  86.3852 334.8987 0015426 199.7749 281.3320 14.57101612909457",
    "l2": "2 33960  86.2559 203.3308 0004793 121.0743 296.3310 14.94046037915689",
    "l2": "2 33966  86.3915 327.8294 0006001 329.5714 151.9183 14.50364600910810",
    "l2": "2 34071  86.3434 298.6192 0006587 204.2938 155.7957 14.50354878909738",
    "l2": "2 34077  86.3845 331.3545 0011345 118.5795  58.8045 14.67930712909920",
    "l2": "2 34079  86.3727 285.3843 0007512  71.2783  54.0984 14.89513555916837",
    "l2": "2 34088  86.3767 306.1703 0002669 265.4950 219.3794 15.03843847914671",
    "l2": "2 34091  86.3487 342.7803 0027430  15.0894 345.1147 14.94934965905682",
    "l2": "2 34097  86.1972 281.1503 0083213 127.5576 233.3217 14.36143054897240",
    "l2": "2 34145  86.2110 251.8895 0050968 215.1123 144.6716 14.43610289902455",
    "l2": "2 34146  86.2814 269.7449 0025236 346.8128 134.6066 14.50174194907299",
    "l2": "2 34159  86.3503 331.2843 0029524  57.5910 302.8138 14.38943832905545",
    "l2": "2 34350  86.3259 283.7784 0018883 252.4322 239.6592 14.45880496909235",
    "l2": "2 34366  86.3678 330.3752 0018284 247.8880 237.2466 14.55733842908172",
    "l2": "2 34375  86.4292 109.2749 0099067 268.5479 145.9267 14.18338287892939",
