OBJECT_NAME,OBJECT_ID,EPOCH,MEAN_MOTION,ECCENTRICITY,INCLINATION,RA_OF_ASC_NODE,ARG_OF_PERICENTER,MEAN_ANOMALY,EPHEMERIS_TYPE,CLASSIFICATION_TYPE,NORAD_CAT_ID,ELEMENT_SET_NO,REV_AT_EPOCH,BSTAR,MEAN_MOTION_DOT,MEAN_MOTION_DDOT
IRIDIUM 33,1997-051C,2026-06-12T06:31:54.963552,14.35147473,.00075305,86.3872,352.0211,358.6001,1.5173,0,U,24946,999,50438,.74305501E-4,.232E-5,0
IRIDIUM 33 DEB,1997-051L,2026-06-12T04:46:26.000256,14.43644012,.00089071,86.4009,343.6844,274.1681,85.8502,0,U,33773,999,90965,.2287164E-3,.796E-5,0
IRIDIUM 33 DEB,1997-051N,2026-06-12T05:24:52.724736,14.42013668,.00107277,86.3627,332.0539,284.7792,256.1556,0,U,33775,999,90755,.41680126E-3,.1387E-4,0
IRIDIUM 33 DEB,1997-051P,2026-06-11T23:10:42.642912,14.38535659,.00133136,86.4044,4.6427,330.9197,148.7208,0,U,33776,999,90687,.1753115E-3,.556E-5,0
IRIDIUM 33 DEB,1997-051Q,2026-06-12T20:26:37.202208,14.56836512,.0007019,86.3771,315.9155,22.3782,337.7731,0,U,33777,999,91184,.85749E-3,.3862E-4,0
IRIDIUM 33 DEB,1997-051T,2026-06-12T19:46:48.840096,14.42676092,.0009188,86.3403,311.8664,291.7860,193.4653,0,U,33850,999,90777,.20398E-3,.698E-5,0
IRIDIUM 33 DEB,1997-051W,2026-06-12T19:41:52.520928,13.99850090,.0208647,85.9981,269.9072,38.4953,83.1470,0,U,33853,999,87892,.31426E-3,.575E-5,0
IRIDIUM 33 DEB,1997-051AD,2026-06-12T03:44:20.891904,14.70171500,.00105853,86.3806,306.7411,82.1411,97.6388,0,U,33860,999,91385,.95741777E-3,.579E-4,0
IRIDIUM 33 DEB,1997-051AF,2026-06-12T21:09:24.134112,14.73440001,.0049242,86.4074,316.9384,154.5928,325.3871,0,U,33862,999,91502,.1152E-2,.7645E-4,0
IRIDIUM 33 DEB,1997-051AK,2026-06-12T01:41:19.732128,14.26302391,.01119139,86.3021,16.2492,299.7017,187.6975,0,U,33866,999,89394,.93790469E-3,.2421E-4,0
IRIDIUM 33 DEB,1997-051AP,2026-06-12T18:39:17.055072,14.46789703,.0018694,86.3745,340.1833,300.9401,120.5069,0,U,33870,999,90768,.5208E-3,.1908E-4,0
IRIDIUM 33 DEB,1997-051BA,2026-06-11T02:04:55.879968,14.61692672,.00537715,86.3851,27.9911,288.0212,195.5768,0,U,33881,999,90130,.16836545E-2,.8581E-4,0
IRIDIUM 33 DEB,1997-051BD,2026-06-12T18:51:56.677824,14.82857072,.0011172,86.3658,287.2593,45.8751,80.9209,0,U,33884,999,91540,.18709E-2,.15206E-3,0
IRIDIUM 33 DEB,1997-051BF,2026-06-12T18:53:13.312896,14.36257700,.0014623,86.3833,350.5979,19.6224,351.4787,0,U,33886,999,90665,.1467E-3,.448E-5,0
IRIDIUM 33 DEB,1997-051BG,2026-06-12T19:30:54.213408,14.37394377,.0006669,86.3033,284.9284,24.3070,93.1563,0,U,33887,999,90780,.1194E-3,.376E-5,0
IRIDIUM 33 DEB,1997-051BN,2026-06-12T06:03:00.279648,14.57101612,.0015426,86.3852,334.8987,199.7749,281.3320,0,U,33953,999,90945,.81287146E-3,.3687E-4,0
IRIDIUM 33 DEB,1997-051BV,2026-06-12T02:40:31.841760,14.94046037,.00047937,86.2559,203.3308,121.0743,296.3310,0,U,33960,999,91568,.10913541E-2,.1168E-3,0
IRIDIUM 33 DEB,1997-051CB,2026-06-12T21:06:52.648992,14.50364600,.0006001,86.3915,327.8294,329.5714,151.9183,0,U,33966,999,91081,.39753E-3,.1571E-4,0
IRIDIUM 33 DEB,1997-051CE,2026-06-12T20:24:44.406144,14.50354878,.0006587,86.3434,298.6192,204.2938,155.7957,0,U,34071,999,90973,.46637E-3,.1839E-4,0
IRIDIUM 33 DEB,1997-051CL,2026-06-12T05:19:02.250912,14.67930712,.00113458,86.3845,331.3545,118.5795,58.8045,0,U,34077,999,90992,.13363433E-2,.7676E-4,0
IRIDIUM 33 DEB,1997-051CN,2026-06-12T20:00:41.899392,14.89513555,.0007512,86.3727,285.3843,71.2783,54.0984,0,U,34079,999,91683,.16185E-2,.15466E-3,0
IRIDIUM 33 DEB,1997-051CX,2026-06-12T19:36:55.960704,15.03843847,.0002669,86.3767,306.1703,265.4950,219.3794,0,U,34088,999,91467,.29732E-2,.41105E-3,0
IRIDIUM 33 DEB,1997-051DA,2026-06-12T05:52:10.917120,14.94934965,.00274305,86.3487,342.7803,15.0894,345.1147,0,U,34091,999,90568,.22543021E-2,.24867E-3,0
IRIDIUM 33 DEB,1997-051DG,2026-06-12T07:27:41.115456,14.36143054,.0083213,86.1972,281.1503,127.5576,233.3217,0,U,34097,999,89724,.10580711E-2,.3226E-4,0
IRIDIUM 33 DEB,1997-051DY,2026-06-11T12:29:26.385792,14.43610289,.0050968,86.2110,251.8895,215.1123,144.6716,0,U,34145,999,90245,.73588E-3,.2553E-4,0
IRIDIUM 33 DEB,1997-051DZ,2026-06-11T18:04:37.358688,14.50174194,.00252362,86.2814,269.7449,346.8128,134.6066,0,U,34146,999,90729,.51720164E-3,.2037E-4,0
IRIDIUM 33 DEB,1997-051EN,2026-06-11T05:08:05.515872,14.38943832,.0029524,86.3503,331.2843,57.5910,302.8138,0,U,34159,999,90554,.26006E-3,.825E-5,0
IRIDIUM 33 DEB,1997-051ES,2026-06-12T19:00:32.515200,14.45880496,.0018883,86.3259,283.7784,252.4322,239.6592,0,U,34350,999,90923,.26601E-3,.966E-5,0
IRIDIUM 33 DEB,1997-051FJ,2026-06-11T23:29:24.514944,14.55733842,.00182843,86.3678,330.3752,247.8880,237.2466,0,U,34366,999,90817,.87719219E-3,.3865E-4,0
IRIDIUM 33 DEB,1997-051FT,2026-06-12T20:51:26.643168,14.18338287,.0099067,86.4292,109.2749,268.5479,145.9267,0,U,34375,999,89293,.30491E-3,.677E-5,0
